{"type": "FeatureCollection", "features": [ {"type": "Feature", "properties": {"norad_id": 30498, "name": "FENGYUN 1C DEB", "group": "fengyun-1c-debris", "lat": -3.218175965514792, "lon": -151.91934949914716, "alt_km": 800.3926471026361, "timestamp": "2025-12-03T15:48:03.348010+00:00", "meta": {"OBJECT_NAME": "FENGYUN 1C DEB", "OBJECT_ID": "1999-025AHL", "EPOCH": "2025-12-02T17:19:15.622176", "MEAN_MOTION": 14.05968462, "ECCENTRICITY": 0.01050258, "INCLINATION": 99.2391, "RA_OF_ASC_NODE": 27.6499, "ARG_OF_PERICENTER": 182.8546, "MEAN_ANOMALY": 301.9014, "EPHEMERIS_TYPE": 0, "CLASSIFICATION_TYPE": "U", "NORAD_CAT_ID": 30498, "ELEMENT_SET_NO": 999, "REV_AT_EPOCH": 95628, "BSTAR": 0.0021296515, "MEAN_MOTION_DOT": 3.622e-05, "MEAN_MOTION_DDOT": 0}, "tle": {"line1": "1 30498U 99025AHL 25336.72170859  .00003622  00000+0  21297-2 0  9992", "line2": "2 30498  99.2391  27.6499 0105025 182.8546 301.9014 14.05968462956286"}}, "geometry": {"type": "Point", "coordinates": [-151.91934949914716, -3.218175965514792]}}, {"type": "Feature", "properties": {"norad_id": 30500, "name": "FENGYUN 1C DEB", "group": "fengyun-1c-debris", "lat": 40.04954006037074, "lon": -103.43725549391611, "alt_km": 757.9719483778881, "timestamp": "2025-12-03T15:48:03.348020+00:00", "meta": {"OBJECT_NAME": "FENGYUN 1C DEB", "OBJECT_ID": "1999-025AHN", "EPOCH": "2025-12-03T05:10:48.205344", "MEAN_MOTION": 14.24996995, "ECCENTRICITY": 0.00659305, "INCLINATION": 99.0729, "RA_OF_ASC_NODE": 68.3864, "ARG_OF_PERICENTER": 143.2676, "MEAN_ANOMALY": 247.0795, "EPHEMERIS_TYPE": 0, "CLASSIFICATION_TYPE": "U", "NORAD_CAT_ID": 30500, "ELEMENT_SET_NO": 999, "REV_AT_EPOCH": 96546, "BSTAR": 0.0037416519, "MEAN_MOTION_DOT": 8.922e-05, "MEAN_MOTION_DDOT": 0}, "tle": {"line1": "1 30500U 99025AHN 25337.21583571  .00008922  00000+0  37417-2 0  9999", "line2": "2 30500  99.0729  68.3864 0065930 143.2676 247.0795 14.24996995965465"}}, "geometry": {"type": "Point", "coordinates": [-103.43725549391611, 40.04954006037074]}}, {"type": "Feature", "properties": {"norad_id": 30501, "name": "FENGYUN 1C DEB", "group": "fengyun-1c-debris", "lat": 76.81482218663444, "lon": -74.92372825793407, "alt_km": 825.5036798676674, "timestamp": "2025-12-03T15:48:03.348028+00:00", "meta": {"OBJECT_NAME": "FENGYUN 1C DEB", "OBJECT_ID": "1999-025AHP", "EPOCH": "2025-12-01T23:06:22.038048", "MEAN_MOTION": 14.25205434, "ECCENTRICITY": 0.00405425, "INCLINATION": 99.0835, "RA_OF_ASC_NODE": 326.3906, "ARG_OF_PERICENTER": 234.6263, "MEAN_ANOMALY": 151.0896, "EPHEMERIS_TYPE": 0, "CLASSIFICATION_TYPE": "U", "NORAD_CAT_ID": 30501, "ELEMENT_SET_NO": 999, "REV_AT_EPOCH": 96766, "BSTAR": 0.0019844886, "MEAN_MOTION_DOT": 4.659e-05, "MEAN_MOTION_DDOT": 0}, "tle": {"line1": "1 30501U 99025AHP 25335.96275507  .00004659  00000+0  19845-2 0  9995", "line2": "2 30501  99.0835 326.3906 0040542 234.6263 151.0896 14.25205434967669"}}, "geometry": {"type": "Point", "coordinates": [-74.92372825793407, 76.81482218663444]}}, {"type": "Feature", "properties": {"norad_id": 30503, "name": "FENGYUN 1C DEB", "group": "fengyun-1c-debris", "lat": -54.7412217420131, "lon": -12.386152682698379, "alt_km": 842.336174252142, "timestamp": "2025-12-03T15:48:03.348037+00:00", "meta": {"OBJECT_NAME": "FENGYUN 1C DEB", "OBJECT_ID": "1999-025AHR", "EPOCH": "2025-12-02T20:07:01.382016", "MEAN_MOTION": 14.1610701, "ECCENTRICITY": 0.00084613, "INCLINATION": 99.2052, "RA_OF_ASC_NODE": 180.0271, "ARG_OF_PERICENTER": 296.7017, "MEAN_ANOMALY": 80.2623, "EPHEMERIS_TYPE": 0, "CLASSIFICATION_TYPE": "U", "NORAD_CAT_ID": 30503, "ELEMENT_SET_NO": 999, "REV_AT_EPOCH": 97206, "BSTAR": 0.00036355576, "MEAN_MOTION_DOT": 6.71e-06, "MEAN_MOTION_DDOT": 0}, "tle": {"line1": "1 30503U 99025AHR 25336.83821044  .00000671  00000+0  36356-3 0  9994", "line2": "2 30503  99.2052 180.0271 0008461 296.7017  80.2623 14.16107010972066"}}, "geometry": {"type": "Point", "coordinates": [-12.386152682698379, -54.7412217420131]}}, {"type": "Feature", "properties": {"norad_id": 30504, "name": "FENGYUN 1C DEB", "group": "fengyun-1c-debris", "lat": -51.68713423657873, "lon": 35.25822422515328, "alt_km": 796.1766750728466, "timestamp": "2025-12-03T15:48:03.348046+00:00", "meta": {"OBJECT_NAME": "FENGYUN 1C DEB", "OBJECT_ID": "1999-025AHS", "EPOCH": "2025-12-01T01:38:19.716000", "MEAN_MOTION": 14.2044549, "ECCENTRICITY": 0.01115456, "INCLINATION": 99.0269, "RA_OF_ASC_NODE": 21.008, "ARG_OF_PERICENTER": 249.7531, "MEAN_ANOMALY": 139.2488, "EPHEMERIS_TYPE": 0, "CLASSIFICATION_TYPE": "U", "NORAD_CAT_ID": 30504, "ELEMENT_SET_NO": 999, "REV_AT_EPOCH": 97228, "BSTAR": 0.00044565383, "MEAN_MOTION_DOT": 9.7e-06, "MEAN_MOTION_DDOT": 0}, "tle": {"line1": "1 30504U 99025AHS 25335.06828375  .00000970  00000+0  44565-3 0  9996", "line2": "2 30504  99.0269  21.0080 0111545 249.7531 139.2488 14.20445490972284"}}, "geometry": {"type": "Point", "coordinates": [35.25822422515328, -51.68713423657873]}}, {"type": "Feature", "properties": {"norad_id": 30505, "name": "FENGYUN 1C DEB", "group": "fengyun-1c-debris", "lat": 23.010362978834305, "lon": -118.96362435476921, "alt_km": 834.6442581665142, "timestamp": "2025-12-03T15:48:03.348055+00:00", "meta": {"OBJECT_NAME": "FENGYUN 1C DEB", "OBJECT_ID": "1999-025AHT", "EPOCH": "2025-12-03T05:03:09.182880", "MEAN_MOTION": 14.21918273, "ECCENTRICITY": 0.00628554, "INCLINATION": 98.9269, "RA_OF_ASC_NODE": 56.7559, "ARG_OF_PERICENTER": 269.281, "MEAN_ANOMALY": 116.7622, "EPHEMERIS_TYPE": 0, "CLASSIFICATION_TYPE": "U", "NORAD_CAT_ID": 30505, "ELEMENT_SET_NO": 999, "REV_AT_EPOCH": 96788, "BSTAR": 0.0023097488, "MEAN_MOTION_DOT": 5.156e-05, "MEAN_MOTION_DDOT": 0}, "tle": {"line1": "1 30505U 99025AHT 25337.21052295  .00005156  00000+0  23097-2 0  9993", "line2": "2 30505  98.9269  56.7559 0062855 269.2810 116.7622 14.21918273967880"}}, "geometry": {"type": "Point", "coordinates": [-118.96362435476921, 23.010362978834305]}}, {"type": "Feature", "properties": {"norad_id": 30506, "name": "FENGYUN 1C DEB", "group": "fengyun-1c-debris", "lat": -77.40258596204274, "lon": 119.38617060819101, "alt_km": 890.8535267725538, "timestamp": "2025-12-03T15:48:03.348064+00:00", "meta": {"OBJECT_NAME": "FENGYUN 1C DEB", "OBJECT_ID": "1999-025AHU", "EPOCH": "2025-12-02T16:43:23.907072", "MEAN_MOTION": 14.08631617, "ECCENTRICITY": 0.00707742, "INCLINATION": 98.7571, "RA_OF_ASC_NODE": 342.0606, "ARG_OF_PERICENTER": 16.3256, "MEAN_ANOMALY": 51.8497, "EPHEMERIS_TYPE": 0, "CLASSIFICATION_TYPE": "U", "NORAD_CAT_ID": 30506, "ELEMENT_SET_NO": 999, "REV_AT_EPOCH": 96680, "BSTAR": 0.00040235369, "MEAN_MOTION_DOT": 6.65e-06, "MEAN_MOTION_DDOT": 0}, "tle": {"line1": "1 30506U 99025AHU 25336.69680448  .00000665  00000+0  40235-3 0  9996", "line2": "2 30506  98.7571 342.0606 0070774  16.3256  51.8497 14.08631617966802"}}, "geometry": {"type": "Point", "coordinates": [119.38617060819101, -77.40258596204274]}}, {"type": "Feature", "properties": {"norad_id": 30507, "name": "FENGYUN 1C DEB", "group": "fengyun-1c-debris", "lat": -50.919537362737216, "lon": -149.1963846080688, "alt_km": 775.1608404521921, "timestamp": "2025-12-03T15:48:03.348073+00:00", "meta": {"OBJECT_NAME": "FENGYUN 1C DEB", "OBJECT_ID": "1999-025AHV", "EPOCH": "2025-11-30T22:58:02.867232", "MEAN_MOTION": 14.13085215, "ECCENTRICITY": 0.01281493, "INCLINATION": 99.0144, "RA_OF_ASC_NODE": 39.3554, "ARG_OF_PERICENTER": 209.3423, "MEAN_ANOMALY": 326.9345, "EPHEMERIS_TYPE": 0, "CLASSIFICATION_TYPE": "U", "NORAD_CAT_ID": 30507, "ELEMENT_SET_NO": 999, "REV_AT_EPOCH": 96331, "BSTAR": 0.0013402973, "MEAN_MOTION_DOT": 2.662e-05, "MEAN_MOTION_DDOT": 0}, "tle": {"line1": "1 30507U 99025AHV 25334.95697763  .00002662  00000+0  13403-2 0  9997", "line2": "2 30507  99.0144  39.3554 0128149 209.3423 326.9345 14.13085215963315"}}, "geometry": {"type": "Point", "coordinates": [-149.1963846080688, -50.919537362737216]}}, {"type": "Feature", "properties": {"norad_id": 30509, "name": "FENGYUN 1C DEB", "group": "fengyun-1c-debris", "lat": -45.529033736596695, "lon": 21.341380763018705, "alt_km": 927.613472949979, "timestamp": "2025-12-03T15:48:03.348081+00:00", "meta": {"OBJECT_NAME": "FENGYUN 1C DEB", "OBJECT_ID": "1999-025AHX", "EPOCH": "2025-12-03T03:30:19.851840", "MEAN_MOTION": 14.07549684, "ECCENTRICITY": 0.01008999, "INCLINATION": 98.4654, "RA_OF_ASC_NODE": 209.5868, "ARG_OF_PERICENTER": 90.5171, "MEAN_ANOMALY": 60.2713, "EPHEMERIS_TYPE": 0, "CLASSIFICATION_TYPE": "U", "NORAD_CAT_ID": 30509, "ELEMENT_SET_NO": 999, "REV_AT_EPOCH": 95587, "BSTAR": 0.0023128864, "MEAN_MOTION_DOT": 4.048e-05, "MEAN_MOTION_DDOT": 0}, "tle": {"line1": "1 30509U 99025AHX 25337.14606310  .00004048  00000+0  23129-2 0  9997", "line2": "2 30509  98.4654 209.5868 0100899  90.5171  60.2713 14.07549684955874"}}, "geometry": {"type": "Point", "coordinates": [21.341380763018705, -45.529033736596695]}}, {"type": "Feature", "properties": {"norad_id": 30510, "name": "FENGYUN 1C DEB", "group": "fengyun-1c-debris", "lat": 73.4464415558597, "lon": -157.37372992116772, "alt_km": 840.1905830496689, "timestamp": "2025-12-03T15:48:03.348090+00:00", "meta": {"OBJECT_NAME": "FENGYUN 1C DEB", "OBJECT_ID": "1999-025AHY", "EPOCH": "2025-12-03T00:08:56.987232", "MEAN_MOTION": 14.12772499, "ECCENTRICITY": 0.00785656, "INCLINATION": 99.2452, "RA_OF_ASC_NODE": 348.7246, "ARG_OF_PERICENTER": 193.3968, "MEAN_ANOMALY": 196.2289, "EPHEMERIS_TYPE": 0, "CLASSIFICATION_TYPE": "U", "NORAD_CAT_ID": 30510, "ELEMENT_SET_NO": 999, "REV_AT_EPOCH": 96437, "BSTAR": 0.0015979403, "MEAN_MOTION_DOT": 3.009e-05, "MEAN_MOTION_DDOT": 0}, "tle": {"line1": "1 30510U 99025AHY 25337.00621513  .00003009  00000+0  15979-2 0  9996", "line2": "2 30510  99.2452 348.7246 0078565 193.3968 196.2289 14.12772499964378"}}, "geometry": {"type": "Point", "coordinates": [-157.37372992116772, 73.4464415558597]}}]}